QIANFAN-1               
1 60379U 24140A   25249.89020986  .00000113  00000+0  15665-3 0  9990
2 60379  88.9805 309.3120 0019433 131.3093 228.9735 13.50963003 54277
QIANFAN-2               
1 60380U 24140B   25249.91883937  .00000135  00000+0  18953-3 0  9995
2 60380  88.9792 309.1618 0015046 106.3641 253.9166 13.50963479 54331
QIANFAN-3               
1 60381U 24140C   25249.92712006  .00000130  00000+0  18272-3 0  9994
2 60381  88.9784 309.3007 0016093 117.2706 243.0087 13.50963543 54247
QIANFAN-4               
1 60382U 24140D   25249.90254335  .00000131  00000+0  18435-3 0  9991
2 60382  88.9809 309.1766 0015266 108.6772 251.6038 13.50963103 54360
QIANFAN-5               
1 60383U 24140E   25249.87781909  .00000134  00000+0  18927-3 0  9999
2 60383  88.9784 309.3314 0017189 127.4319 232.8400 13.50966453 54226
QIANFAN-6               
1 60384U 24140F   25249.89838397  .00000121  00000+0  16861-3 0  9997
2 60384  88.9810 309.0498 0015336 113.7171 246.5591 13.50962572 54426
QIANFAN-7               
1 60385U 24140G   25249.87597307  .00000775  00000+0  30925-3 0  9991
2 60385  88.9809 305.1113 0014810   9.5657 350.5816 14.27541159 56576
QIANFAN-8               
1 60386U 24140H   25249.90661461  .00000122  00000+0  17049-3 0  9997
2 60386  88.9813 309.2847 0018769 116.0200 244.2887 13.50966500 54274
